LANDSAT 9               
1 49260U 21088A   24017.20574073  .00000873  00000+0  20384-3 0  9999
2 49260  98.2069  89.2712 0001073  88.8485 271.2836 14.57116787122559
